[{"OBJECT_NAME":"STARLINK-4392","OBJECT_ID":"2022-099AA","EPOCH":"2026-03-09T21:33:28.957248","MEAN_MOTION":15.01259695,"ECCENTRICITY":0.00025019,"INCLINATION":97.6024,"RA_OF_ASC_NODE":190.3939,"ARG_OF_PERICENTER":177.021,"MEAN_ANOMALY":183.103,"EPHEMERIS_TYPE":0,"CLASSIFICATION_TYPE":"U","NORAD_CAT_ID":53489,"ELEMENT_SET_NO":999,"REV_AT_EPOCH":19601,"BSTAR":6.3338937e-5,"MEAN_MOTION_DOT":7.55e-6,"MEAN_MOTION_DDOT":0},{"OBJECT_NAME":"IRIDIUM 33 DEB","OBJECT_ID":"1997-051GB","EPOCH":"2026-03-09T18:44:19.060224","MEAN_MOTION":15.02189476,"ECCENTRICITY":0.0010038,"INCLINATION":86.3931,"RA_OF_ASC_NODE":331.664,"ARG_OF_PERICENTER":138.3098,"MEAN_ANOMALY":291.9123,"EPHEMERIS_TYPE":0,"CLASSIFICATION_TYPE":"U","NORAD_CAT_ID":34486,"ELEMENT_SET_NO":999,"REV_AT_EPOCH":90290,"BSTAR":0.0023709806,"MEAN_MOTION_DOT":0.00031372,"MEAN_MOTION_DDOT":0}]
